0 COSMOS 2251 DEB
1 34611U 93036WG  13281.40840013  .00001768  00000-0  56956-3 0  8514
2 34611 074.0645 136.1456 0045208 241.3540 182.4550 14.39426405240680
0 COSMOS 2251 DEB
1 34611U 93036WG  13283.71138221  .00001979  00000-0  63608-3 0  8528
2 34611 074.0643 131.9015 0045136 236.5756 236.3520 14.39441193241012
0 COSMOS 2251 DEB
1 34611U 93036WG  13285.72984389  .00002018  00000-0  64846-3 0  8536
2 34611 074.0641 128.1815 0045052 232.3575 255.9948 14.39446231241307
0 COSMOS 2251 DEB
1 34611U 93036WG  13287.74501843  .00003103  00000-0  99228-3 0  8549
2 34611 074.0643 124.4694 0045047 228.1398 258.6626 14.39453838241598
0 COSMOS 2251 DEB
1 34611U 93036WG  13289.96786744  .00003187  00000-0  10189-2 0  8551
2 34611 074.0641 120.3727 0044973 223.5397 257.5420 14.39466320241919
0 COSMOS 2251 DEB
1 34611U 93036WG  13291.98340529  .00003217  00000-0  10281-2 0  8561
2 34611 074.0643 116.6576 0044913 219.3771 262.2096 14.39476900242204
0 COSMOS 2251 DEB
1 34611U 93036WG  13294.26388841  .00004080  00000-0  13011-2 0  8578
2 34611 074.0647 112.4542 0044842 214.7054 199.9020 14.39490146242536
